2024-174E               
1 61242U 24174E   24283.54336345  .00012220  00000+0  62900-3 0  9991
2 61242  97.4581 288.5842 0014841 227.7063 132.2913 15.16468247  2167
STARLINK-11300 [DTC]    
1 61243U 24175A   24283.58334491 -.00060200  00000+0 -36536-3 0  9996
2 61243  53.1573  82.1949 0001227  91.0102 246.1736 15.76793367  3321
STARLINK-11276 [DTC]    
1 61244U 24175B   24283.58334491 -.00096237  00000+0 -58944-3 0  9993
2 61244  53.1613  82.1392 0000784 101.1777 263.7868 15.76776050  3171
STARLINK-11280 [DTC]    
1 61245U 24175C   24283.58334491 -.00513086  00000+0 -32858-2 0  9995
2 61245  53.1639  82.0260 0001091 100.4606 320.0688 15.76986866  3443
STARLINK-11308 [DTC]    
1 61246U 24175D   24283.58334491 -.00130718  00000+0 -80324-3 0  9995
2 61246  53.1595  82.0822 0001431 100.0254 292.6174 15.76832185  3181
STARLINK-11305 [DTC]    
1 61247U 24175E   24283.58334491 -.00116418  00000+0 -71599-3 0  9991
2 61247  53.1623  81.9688 0001253  88.6817 359.5067 15.76761834  3489
STARLINK-11317 [DTC]    
1 61248U 24175F   24283.58334491  .00021908  00000+0  13758-3 0  9992
2 61248  53.1638  81.9115 0000728  79.7977  36.1277 15.76716514  3289
STARLINK-11293 [DTC]    
1 61249U 24175G   24283.58334491 -.00995726  00000+0 -64203-2 0  9993
2 61249  53.1645  81.8588 0001020  63.2444  78.8109 15.78117512  3501
STARLINK-11334 [DTC]    
1 61250U 24175H   24283.58334491  .00304244  00000+0  14354-2 0  9994
2 61250  53.1646  81.8018 0001165  44.5601 125.1275 15.81701227  3178
STARLINK-11319 [DTC]    
1 61251U 24175J   24283.58334491 -.00991682  00000+0 -57311-2 0  9995
2 61251  53.1644  81.7659 0000886  56.5641 130.5801 15.80494289  3499
STARLINK-11318 [DTC]    
1 61252U 24175K   24283.58334491 -.00992607  00000+0 -54320-2 0  9991
2 61252  53.1643  81.7261 0000716  64.9281 141.2944 15.81666051  3185
STARLINK-11311 [DTC]    
1 61253U 24175L   24283.58334491 -.00994256  00000+0 -51575-2 0  9993
2 61253  53.1644  81.6905 0001089  71.8557 151.5070 15.82799158  3458
STARLINK-11306 [DTC]    
1 61254U 24175M   24283.58334491 -.00995365  00000+0 -48990-2 0  9993
2 61254  53.1644  81.6588 0000933  84.1480 154.4658 15.83902549  3494
STARLINK-11313 [DTC]    
1 61255U 24175N   24283.58334491 -.00024763  00000+0 -10644-3 0  9995
2 61255  53.1641  81.6316 0000504  51.4568 200.4088 15.83806488  3280
STARLINK-32431          
1 61256U 24175P   24283.58334491 -.00813657  00000+0 -52340-2 0  9992
2 61256  53.1634  81.7715 0000934  62.7106 120.3674 15.77681922  3498
STARLINK-32432          
1 61257U 24175Q   24283.58334491 -.00802933  00000+0 -51434-2 0  9991
2 61257  53.1634  81.7771 0001011  69.0066 111.3782 15.77745941  3495
STARLINK-32382          
1 61258U 24175R   24283.58334491 -.00870389  00000+0 -57391-2 0  9990
2 61258  53.1632  81.7429 0000953  67.5207 129.2389 15.77283602  3243
STARLINK-32435          
1 61259U 24175S   24283.58334491 -.00832129  00000+0 -53986-2 0  9997
2 61259  53.1635  81.7650 0000913  63.5757 122.9255 15.77542108  3459
STARLINK-32474          
1 61260U 24175T   24283.58334491 -.00835423  00000+0 -54246-2 0  9999
2 61260  53.1636  81.7605 0000988  66.8244 121.7576 15.77531292  3456
STARLINK-32447          
1 61261U 24175U   24283.58334491 -.00866078  00000+0 -57016-2 0  9998
2 61261  53.1636  81.7479 0000893  65.0164 129.5742 15.77307929  3496
STARLINK-32446          
1 61262U 24175V   24283.58334491 -.00852396  00000+0 -55747-2 0  9996
2 61262  53.1636  81.7542 0000878  65.0994 126.5456 15.77417891  3503
2024-174F               
1 61263U 24174F   24283.56211505  .00208487  13626-4  13422-2 0  9995
2 61263  97.4330 289.4446 0169706 337.5466  21.8421 15.58823873  2220
2024-174G               
1 61443U 24174G   24283.53087006  .00495327  73998-4  26259-2 0  9990
2 61443  97.4291 289.4831 0147669 337.0536  22.4169 15.66304351  2030
SHIJIAN-19 (SJ-19)      
1 61444U 24177A   24283.50566159  .00008078  00000+0  49426-4 0  9997
2 61444  41.6006  84.3534 0007028  26.5396 333.5810 15.77571191  2057
CZ-2D R/B               
1 61445U 24177B   24283.48285893  .00373039  00000+0  14488-2 0  9998
2 61445  41.3915  83.8517 0019586 337.6787  22.3206 15.85066428  1918
CREW DRAGON 9           
1 61447U 24178A   24283.54185571  .00038437  00000+0  68853-3 0  9996
2 61447  51.6395 108.9836 0008027  61.2002 349.0996 15.49541134  1521
VULCAN CENTAUR R/B      
1 61448U 24179A   24278.48676111  .00000148  00000+0  00000+0 0  9994
2 61448  30.0000 357.3088 0004000 321.8000 177.5900 15.23529867    07
1998-067WZ              
1 61501U 98067WZ  24283.53215043  .00128905  00000+0  21735-2 0  9999
2 61501  51.6370 109.0234 0009421  78.0705 282.1340 15.50681434   219
1998-067XA              
1 61502U 98067XA  24283.53218446  .00211298  00000+0  35190-2 0  9998
2 61502  51.6371 109.0230 0006853  71.9232 288.2503 15.50717505   206
